[
    {
        "CCSDS_OMM_VERS": "3.0",
        "COMMENT": "GENERATED VIA SPACE-TRACK.ORG API",
        "CREATION_DATE": "2025-04-14T03:05:54",
        "ORIGINATOR": "18 SPCS",
        "OBJECT_NAME": "BEIDOU 14",
        "OBJECT_ID": "2012-050A",
        "CENTER_NAME": "EARTH",
        "REF_FRAME": "TEME",
        "TIME_SYSTEM": "UTC",
        "MEAN_ELEMENT_THEORY": "SGP4",
        "EPOCH": "2025-04-12T21:40:28.860384",
        "MEAN_MOTION": "1.86251595",
        "ECCENTRICITY": "0.00417620",
        "INCLINATION": "56.0616",
        "RA_OF_ASC_NODE": "77.1965",
        "ARG_OF_PERICENTER": "256.8548",
        "MEAN_ANOMALY": "102.6547",
        "EPHEMERIS_TYPE": "0",
        "CLASSIFICATION_TYPE": "U",
        "NORAD_CAT_ID": "38774",
        "ELEMENT_SET_NO": "999",
        "REV_AT_EPOCH": "6983",
        "BSTAR": "0.00000000000000",
        "MEAN_MOTION_DOT": "-0.00000017",
        "MEAN_MOTION_DDOT": "0.0000000000000",
        "SEMIMAJOR_AXIS": "27904.131",
        "PERIOD": "773.148",
        "APOAPSIS": "21642.530",
        "PERIAPSIS": "21409.463",
        "OBJECT_TYPE": "PAYLOAD",
        "RCS_SIZE": "LARGE",
        "COUNTRY_CODE": "PRC",
        "LAUNCH_DATE": "2012-09-18",
        "SITE": "XSC",
        "DECAY_DATE": null,
        "FILE": "4701263",
        "GP_ID": "285536020",
        "TLE_LINE0": "0 BEIDOU 14",
        "TLE_LINE1": "1 38774U 12050A   25102.90311181 -.00000017  00000-0  00000-0 0  9990",
        "TLE_LINE2": "2 38774  56.0616  77.1965 0041762 256.8548 102.6547  1.86251595 69831"
    }
]